start=new Date('2023-04-05T00:00:00.000Z').valueOf();
sats=[{"SITE":"AFETR","OBJECT_TYPE":"PAYLOAD","ELEMENT_SET_NO":"999","COUNTRY_CODE":"US","PERIOD":"95.592","TLE_LINE1":"1 46682U 20073N   23094.80302293 -.00004637  00000-0 -29264-3 0  9991","LAUNCH_DATE":"2020-10-18","RCS_SIZE":"LARGE","REF_FRAME":"TEME","OBJECT_ID":"2020-073N","NORAD_CAT_ID":"46682","SEMIMAJOR_AXIS":"6925.353","MEAN_MOTION_DDOT":"0.0000000000000","ECCENTRICITY":"0.00006840","EPOCH":"2023-04-04T19:16:21.181152","CENTER_NAME":"EARTH","ARG_OF_PERICENTER":"92.7343","MEAN_ANOMALY":"267.3725","FILE":"3880093","MEAN_MOTION_DOT":"-0.00004637","RA_OF_ASC_NODE":"19.5234","APOAPSIS":"547.692","OBJECT_NAME":"STARLINK-1776","PERIAPSIS":"546.745","MEAN_MOTION":"15.06398406","REV_AT_EPOCH":"13625","EPHEMERIS_TYPE":"0","DECAY_DATE":null,"TIME_SYSTEM":"UTC","GP_ID":"229470875","BSTAR":"-0.00029264000000","MEAN_ELEMENT_THEORY":"SGP4","TLE_LINE2":"2 46682  53.0552  19.5234 0000684  92.7343 267.3725 15.06398406136259","INCLINATION":"53.0552","CLASSIFICATION_TYPE":"U"},{"MEAN_MOTION":"15.06441294","APOAPSIS":"547.606","PERIAPSIS":"546.568","OBJECT_NAME":"STARLINK-1780","RA_OF_ASC_NODE":"7.5546","MEAN_MOTION_DOT":"0.00044915","ARG_OF_PERICENTER":"88.1336","MEAN_ANOMALY":"271.9739","FILE":"3879974","MEAN_ELEMENT_THEORY":"SGP4","TLE_LINE2":"2 46684  53.0557   7.5546 0000749  88.1336 271.9739 15.06441294135778","INCLINATION":"53.0557","CLASSIFICATION_TYPE":"U","TIME_SYSTEM":"UTC","GP_ID":"229462310","BSTAR":"0.00301170000000","DECAY_DATE":null,"REV_AT_EPOCH":"13577","EPHEMERIS_TYPE":"0","LAUNCH_DATE":"2020-10-18","REF_FRAME":"TEME","RCS_SIZE":"LARGE","TLE_LINE1":"1 46684U 20073Q   23094.12803450  .00044915  00000-0  30117-2 0  9998","PERIOD":"95.590","COUNTRY_CODE":"US","SITE":"AFETR","ELEMENT_SET_NO":"999","OBJECT_TYPE":"PAYLOAD","MEAN_MOTION_DDOT":"0.0000000000000","SEMIMAJOR_AXIS":"6925.222","CENTER_NAME":"EARTH","EPOCH":"2023-04-04T03:04:22.180800","ECCENTRICITY":"0.00007490","NORAD_CAT_ID":"46684","OBJECT_ID":"2020-073Q"},{"EPOCH":"2023-04-04T05:58:49.542528","CENTER_NAME":"EARTH","ECCENTRICITY":"0.00011810","MEAN_MOTION_DDOT":"0.0000000000000","SEMIMAJOR_AXIS":"6925.084","NORAD_CAT_ID":"46685","OBJECT_ID":"2020-073R","REF_FRAME":"TEME","RCS_SIZE":"LARGE","LAUNCH_DATE":"2020-10-18","TLE_LINE1":"1 46685U 20073R   23094.24918452  .00041472  00000-0  27803-2 0  9994","PERIOD":"95.587","COUNTRY_CODE":"US","ELEMENT_SET_NO":"999","OBJECT_TYPE":"PAYLOAD","SITE":"AFETR","CLASSIFICATION_TYPE":"U","INCLINATION":"53.0550","MEAN_ELEMENT_THEORY":"SGP4","TLE_LINE2":"2 46685  53.0550  22.0069 0001181  91.7549 268.3575 15.06486233136053","BSTAR":"0.00278030000000","GP_ID":"229432267","TIME_SYSTEM":"UTC","DECAY_DATE":null,"EPHEMERIS_TYPE":"0","REV_AT_EPOCH":"13605","MEAN_MOTION":"15.06486233","OBJECT_NAME":"STARLINK-1781","PERIAPSIS":"546.131","APOAPSIS":"547.767","RA_OF_ASC_NODE":"22.0069","MEAN_MOTION_DOT":"0.00041472","FILE":"3879524","MEAN_ANOMALY":"268.3575","ARG_OF_PERICENTER":"91.7549"},{"REF_FRAME":"TEME","RCS_SIZE":"LARGE","LAUNCH_DATE":"2020-10-18","TLE_LINE1":"1 46686U 20073S   23094.09437374  .00032382  00000-0  21805-2 0  9993","PERIOD":"95.590","COUNTRY_CODE":"US","ELEMENT_SET_NO":"999","OBJECT_TYPE":"PAYLOAD","SITE":"AFETR","CENTER_NAME":"EARTH","EPOCH":"2023-04-04T02:15:53.891136","ECCENTRICITY":"0.00014090","MEAN_MOTION_DDOT":"0.0000000000000","SEMIMAJOR_AXIS":"6925.225","NORAD_CAT_ID":"46686","OBJECT_ID":"2020-073S","MEAN_MOTION":"15.06440264","OBJECT_NAME":"STARLINK-1783","PERIAPSIS":"546.114","APOAPSIS":"548.066","RA_OF_ASC_NODE":"22.6562","MEAN_MOTION_DOT":"0.00032382","FILE":"3880153","ARG_OF_PERICENTER":"92.0361","MEAN_ANOMALY":"268.0790","CLASSIFICATION_TYPE":"U","INCLINATION":"53.0566","TLE_LINE2":"2 46686  53.0566  22.6562 0001409  92.0361 268.0790 15.06440264136032","MEAN_ELEMENT_THEORY":"SGP4","BSTAR":"0.00218050000000","TIME_SYSTEM":"UTC","GP_ID":"229472356","DECAY_DATE":null,"EPHEMERIS_TYPE":"0","REV_AT_EPOCH":"13603"},{"OBJECT_ID":"2020-073T","CENTER_NAME":"EARTH","EPOCH":"2023-04-04T21:09:49.789728","ECCENTRICITY":"0.00008730","MEAN_MOTION_DDOT":"0.0000000000000","SEMIMAJOR_AXIS":"6925.377","NORAD_CAT_ID":"46687","COUNTRY_CODE":"US","ELEMENT_SET_NO":"999","OBJECT_TYPE":"PAYLOAD","SITE":"AFETR","REF_FRAME":"TEME","RCS_SIZE":"LARGE","LAUNCH_DATE":"2020-10-18","TLE_LINE1":"1 46687U 20073T   23094.88182627  .00020352  00000-0  13816-2 0  9996","PERIOD":"95.593","DECAY_DATE":null,"REV_AT_EPOCH":"13616","EPHEMERIS_TYPE":"0","CLASSIFICATION_TYPE":"U","INCLINATION":"53.0545","MEAN_ELEMENT_THEORY":"SGP4","TLE_LINE2":"2 46687  53.0545 344.1722 0000873  63.3708 296.7370 15.06390559136167","BSTAR":"0.00138160000000","GP_ID":"229492919","TIME_SYSTEM":"UTC","RA_OF_ASC_NODE":"344.1722","MEAN_MOTION_DOT":"0.00020352","FILE":"3880211","MEAN_ANOMALY":"296.7370","ARG_OF_PERICENTER":"63.3708","MEAN_MOTION":"15.06390559","PERIAPSIS":"546.638","OBJECT_NAME":"STARLINK-1784","APOAPSIS":"547.847"},{"DECAY_DATE":null,"REV_AT_EPOCH":"13682","EPHEMERIS_TYPE":"0","CLASSIFICATION_TYPE":"U","INCLINATION":"53.0550","MEAN_ELEMENT_THEORY":"SGP4","TLE_LINE2":"2 46689  53.0550  22.0414 0001008 122.0520 238.0566 15.06498171136829","BSTAR":"0.00247130000000","GP_ID":"229462811","TIME_SYSTEM":"UTC","MEAN_MOTION_DOT":"0.00036819","RA_OF_ASC_NODE":"22.0414","FILE":"3879974","MEAN_ANOMALY":"238.0566","ARG_OF_PERICENTER":"122.0520","MEAN_MOTION":"15.06498171","OBJECT_NAME":"STARLINK-1788","PERIAPSIS":"546.215","APOAPSIS":"547.611","OBJECT_ID":"2020-073V","ECCENTRICITY":"0.00010080","EPOCH":"2023-04-04T05:49:31.224864","CENTER_NAME":"EARTH","SEMIMAJOR_AXIS":"6925.048","MEAN_MOTION_DDOT":"0.0000000000000","NORAD_CAT_ID":"46689","COUNTRY_CODE":"US","OBJECT_TYPE":"PAYLOAD","ELEMENT_SET_NO":"999","SITE":"AFETR","RCS_SIZE":"LARGE","REF_FRAME":"TEME","LAUNCH_DATE":"2020-10-18","PERIOD":"95.586","TLE_LINE1":"1 46689U 20073V   23094.24272251  .00036819  00000-0  24713-2 0  9994"},{"NORAD_CAT_ID":"46690","MEAN_MOTION_DDOT":"0.0000000000000","SEMIMAJOR_AXIS":"6925.246","CENTER_NAME":"EARTH","EPOCH":"2023-04-04T21:45:37.857024","ECCENTRICITY":"0.00008330","OBJECT_ID":"2020-073W","TLE_LINE1":"1 46690U 20073W   23094.90668816  .00021319  00000-0  14445-2 0  9995","PERIOD":"95.590","LAUNCH_DATE":"2020-10-18","REF_FRAME":"TEME","RCS_SIZE":"LARGE","SITE":"AFETR","ELEMENT_SET_NO":"999","OBJECT_TYPE":"PAYLOAD","COUNTRY_CODE":"US","TIME_SYSTEM":"UTC","GP_ID":"229493918","BSTAR":"0.00144450000000","MEAN_ELEMENT_THEORY":"SGP4","TLE_LINE2":"2 46690  53.0546 354.0593 0000833  79.5272 280.5811 15.06433606136026","CLASSIFICATION_TYPE":"U","INCLINATION":"53.0546","EPHEMERIS_TYPE":"0","REV_AT_EPOCH":"13602","DECAY_DATE":null,"APOAPSIS":"547.687","PERIAPSIS":"546.534","OBJECT_NAME":"STARLINK-1789","MEAN_MOTION":"15.06433606","MEAN_ANOMALY":"280.5811","ARG_OF_PERICENTER":"79.5272","FILE":"3880211","RA_OF_ASC_NODE":"354.0593","MEAN_MOTION_DOT":"0.00021319"},{"MEAN_MOTION_DDOT":"0.0000000000000","SEMIMAJOR_AXIS":"6925.362","EPOCH":"2023-04-04T21:44:21.805152","CENTER_NAME":"EARTH","ECCENTRICITY":"0.00016020","NORAD_CAT_ID":"46691","OBJECT_ID":"2020-073X","LAUNCH_DATE":"2020-10-18","REF_FRAME":"TEME","RCS_SIZE":"LARGE","TLE_LINE1":"1 46691U 20073X   23094.90580793  .00020496  00000-0  13910-2 0  9994","PERIOD":"95.592","COUNTRY_CODE":"US","SITE":"AFETR","ELEMENT_SET_NO":"999","OBJECT_TYPE":"PAYLOAD","TLE_LINE2":"2 46691  53.0561   4.0647 0001602 111.9512 248.1648 15.06395756135883","MEAN_ELEMENT_THEORY":"SGP4","INCLINATION":"53.0561","CLASSIFICATION_TYPE":"U","TIME_SYSTEM":"UTC","GP_ID":"229492170","BSTAR":"0.00139100000000","DECAY_DATE":null,"REV_AT_EPOCH":"13588","EPHEMERIS_TYPE":"0","MEAN_MOTION":"15.06395756","APOAPSIS":"548.336","PERIAPSIS":"546.117","OBJECT_NAME":"STARLINK-1790","RA_OF_ASC_NODE":"4.0647","MEAN_MOTION_DOT":"0.00020496","MEAN_ANOMALY":"248.1648","ARG_OF_PERICENTER":"111.9512","FILE":"3880211"},{"RCS_SIZE":"LARGE","REF_FRAME":"TEME","LAUNCH_DATE":"2020-10-18","PERIOD":"95.591","TLE_LINE1":"1 46692U 20073Y   23094.09527451  .00016075  00000-0  10950-2 0  9996","COUNTRY_CODE":"US","OBJECT_TYPE":"PAYLOAD","ELEMENT_SET_NO":"999","SITE":"AFETR","ECCENTRICITY":"0.00013140","CENTER_NAME":"EARTH","EPOCH":"2023-04-04T02:17:11.717664","SEMIMAJOR_AXIS":"6925.285","MEAN_MOTION_DDOT":"0.0000000000000","NORAD_CAT_ID":"46692","OBJECT_ID":"2020-073Y","MEAN_MOTION":"15.06420766","PERIAPSIS":"546.240","OBJECT_NAME":"STARLINK-1791","APOAPSIS":"548.060","MEAN_MOTION_DOT":"0.00016075","RA_OF_ASC_NODE":"22.7006","FILE":"3879974","ARG_OF_PERICENTER":"113.2276","MEAN_ANOMALY":"246.8852","CLASSIFICATION_TYPE":"U","INCLINATION":"53.0551","TLE_LINE2":"2 46692  53.0551  22.7006 0001314 113.2276 246.8852 15.06420766135557","MEAN_ELEMENT_THEORY":"SGP4","BSTAR":"0.00109500000000","GP_ID":"229462561","TIME_SYSTEM":"UTC","DECAY_DATE":null,"EPHEMERIS_TYPE":"0","REV_AT_EPOCH":"13555"},{"EPOCH":"2023-04-04T21:49:36.376320","CENTER_NAME":"EARTH","ECCENTRICITY":"0.00012000","MEAN_MOTION_DDOT":"0.0000000000000","SEMIMAJOR_AXIS":"6925.367","NORAD_CAT_ID":"46693","OBJECT_ID":"2020-073Z","REF_FRAME":"TEME","RCS_SIZE":"LARGE","LAUNCH_DATE":"2020-10-18","TLE_LINE1":"1 46693U 20073Z   23094.90944880  .00000365  00000-0  43384-4 0  9990","PERIOD":"95.593","COUNTRY_CODE":"US","ELEMENT_SET_NO":"999","OBJECT_TYPE":"PAYLOAD","SITE":"AFETR","INCLINATION":"53.0556","CLASSIFICATION_TYPE":"U","TLE_LINE2":"2 46693  53.0556   4.0490 0001200 103.9734 256.1388 15.06393821135887","MEAN_ELEMENT_THEORY":"SGP4","BSTAR":"0.00004338400000","TIME_SYSTEM":"UTC","GP_ID":"229493671","DECAY_DATE":null,"REV_AT_EPOCH":"13588","EPHEMERIS_TYPE":"0","MEAN_MOTION":"15.06393821","OBJECT_NAME":"STARLINK-1792","PERIAPSIS":"546.401","APOAPSIS":"548.064","RA_OF_ASC_NODE":"4.0490","MEAN_MOTION_DOT":"0.00000365","FILE":"3880211","ARG_OF_PERICENTER":"103.9734","MEAN_ANOMALY":"256.1388"}];
